NORAD_CAT_ID,OBJECT_NAME,OBJECT_TYPE,EPOCH,MEAN_MOTION,ECCENTRICITY,INCLINATION,RA_OF_ASC_NODE,ARG_OF_PERICENTER,MEAN_ANOMALY,BSTAR,MEAN_MOTION_DOT,MEAN_MOTION_DDOT,TLE_LINE0,TLE_LINE1,TLE_LINE2,SEMIMAJOR_AXIS,PERIOD,APOGEE,PERIGEE,DECAYED
52668.0,STARLINK-4067,PAYLOAD,2023-11-09 09:56:36,15.0886977,0.0001932,53.2198,15.6557,125.0005,235.1169,0.00014821,2.073e-05,0.0,0 STARLINK-4067,1 52668U 22053N   23313.41430980  .00002073  00000-0  14821-3 0  9991,2 52668  53.2198  15.6557 0001932 125.0005 235.1169 15.08869770 82530,6917.789,95.436,540.991,538.318,0.0
52668.0,STARLINK-4067,PAYLOAD,2023-11-09 21:04:18,15.08860662,0.0001307,53.2181,13.5681,89.6687,270.4455,0.00051482,7.919e-05,0.0,0 STARLINK-4067,1 52668U 22053N   23313.87798758  .00007919  00000-0  51482-3 0  9999,2 52668  53.2181  13.5681 0001307  89.6687 270.4455 15.08860662 82603,6917.817,95.436,540.586,538.778,0.0
52668.0,STARLINK-4067,PAYLOAD,2023-11-10 09:47:23,15.08843265,0.0001687,53.2184,11.1901,92.007,268.1115,0.00013722,1.897e-05,0.0,0 STARLINK-4067,1 52668U 22053N   23314.40791043  .00001897  00000-0  13722-3 0  9993,2 52668  53.2184  11.1901 0001687  92.0070 268.1115 15.08843265 82685,6917.87,95.437,540.902,538.568,0.0
52668.0,STARLINK-4067,PAYLOAD,2023-11-11 00:05:51,15.08838325,0.0001787,53.2176,8.5146,87.9038,272.2159,0.00036078,5.458e-05,0.0,0 STARLINK-4067,1 52668U 22053N   23315.00407387  .00005458  00000-0  36078-3 0  9991,2 52668  53.2176   8.5146 0001787  87.9038 272.2159 15.08838325 82770,6917.886,95.438,540.987,538.514,0.0
52668.0,STARLINK-4067,PAYLOAD,2023-11-11 12:48:56,15.08846045,0.0001806,53.2173,6.1336,97.4776,262.6422,0.00037765,5.728e-05,0.0,0 STARLINK-4067,1 52668U 22053N   23315.53399288  .00005728  00000-0  37765-3 0  9993,2 52668  53.2173   6.1336 0001806  97.4776 262.6422 15.08846045 82852,6917.862,95.437,540.976,538.478,0.0
52668.0,STARLINK-4067,PAYLOAD,2023-11-11 20:45:52,15.08838036,0.0001722,53.2178,4.6438,95.9364,264.1824,9.7966e-05,1.271e-05,0.0,0 STARLINK-4067,1 52668U 22053N   23315.86519294  .00001271  00000-0  97966-4 0  9999,2 52668  53.2178   4.6438 0001722  95.9364 264.1824 15.08838036 82906,6917.886,95.438,540.943,538.56,0.0
52668.0,STARLINK-4067,PAYLOAD,2023-11-12 03:07:25,15.08837613,0.0001744,53.2174,3.4551,88.8546,271.2646,0.00012911,1.767e-05,0.0,0 STARLINK-4067,1 52668U 22053N   23316.13015571  .00001767  00000-0  12911-3 0  9995,2 52668  53.2174   3.4551 0001744  88.8546 271.2646 15.08837613 82947,6917.888,95.438,540.959,538.546,0.0
52668.0,STARLINK-4067,PAYLOAD,2023-11-12 09:28:57,15.08841984,0.0001644,53.2166,2.2651,89.1529,270.9651,0.00019338,2.791e-05,0.0,0 STARLINK-4067,1 52668U 22053N   23316.39511539  .00002791  00000-0  19338-3 0  9996,2 52668  53.2166   2.2651 0001644  89.1529 270.9651 15.08841984 82982,6917.874,95.437,540.877,538.602,0.0
52668.0,STARLINK-4067,PAYLOAD,2023-11-12 20:36:39,15.08841611,0.000164,53.2163,0.1839,85.1628,274.9551,0.00013324,1.833e-05,0.0,0 STARLINK-4067,1 52668U 22053N   23316.85879507  .00001833  00000-0  13324-3 0  9994,2 52668  53.2163   0.1839 0001640  85.1628 274.9551 15.08841611 83055,6917.875,95.437,540.875,538.606,0.0
52668.0,STARLINK-4067,PAYLOAD,2023-11-13 09:19:44,15.08846052,0.0001661,53.2163,357.8046,94.0566,266.0616,0.00017807,2.548e-05,0.0,0 STARLINK-4067,1 52668U 22053N   23317.38871231  .00002548  00000-0  17807-3 0  9993,2 52668  53.2163 357.8046 0001661  94.0566 266.0616 15.08846052 83137,6917.862,95.437,540.876,538.578,0.0
52668.0,STARLINK-4067,PAYLOAD,2023-11-13 12:30:30,15.08851123,0.0001608,53.2165,357.2089,94.3897,265.7279,0.00016651,2.364e-05,0.0,0 STARLINK-4067,1 52668U 22053N   23317.52118872  .00002364  00000-0  16651-3 0  9996,2 52668  53.2165 357.2089 0001608  94.3897 265.7279 15.08851123 83159,6917.846,95.437,540.824,538.599,0.0
52668.0,STARLINK-4067,PAYLOAD,2023-11-14 02:48:59,15.08838186,0.0001563,53.2187,354.5304,104.3083,255.8082,0.00018252,2.618e-05,0.0,0 STARLINK-4067,1 52668U 22053N   23318.11735447  .00002618  00000-0  18252-3 0  9996,2 52668  53.2187 354.5304 0001563 104.3083 255.8082 15.08838186 83248,6917.886,95.438,540.832,538.67,0.0
52668.0,STARLINK-4067,PAYLOAD,2023-11-14 09:10:31,15.08844502,0.0001609,53.2185,353.3435,100.0551,260.0623,0.00018478,2.654e-05,0.0,0 STARLINK-4067,1 52668U 22053N   23318.38231119  .00002654  00000-0  18478-3 0  9992,2 52668  53.2185 353.3435 0001609 100.0551 260.0623 15.08844502 83284,6917.867,95.437,540.845,538.619,0.0
52668.0,STARLINK-4067,PAYLOAD,2023-11-15 07:25:55,15.08836507,0.000167,53.2167,349.1808,97.6482,262.47,-3.9501e-06,-3.51e-06,0.0,0 STARLINK-4067,1 52668U 22053N   23319.30967543 -.00000351  00000-0 -39501-5 0  9998,2 52668  53.2167 349.1808 0001670  97.6482 262.4700 15.08836507 83427,6917.891,95.438,540.911,538.601,0.0
52668.0,STARLINK-4067,PAYLOAD,2023-11-15 12:12:05,15.08841287,0.0001547,53.2176,348.2873,98.3845,261.7323,2.6386e-05,1.32e-06,0.0,0 STARLINK-4067,1 52668U 22053N   23319.50839454  .00000132  00000-0  26386-4 0  9990,2 52668  53.2176 348.2873 0001547  98.3845 261.7323 15.08841287 83450,6917.876,95.437,540.812,538.671,0.0
52668.0,STARLINK-4067,PAYLOAD,2023-11-15 18:33:37,15.08841434,0.0001592,53.2174,347.0977,98.0412,262.0761,-1.0417e-05,-4.54e-06,0.0,0 STARLINK-4067,1 52668U 22053N   23319.77335501 -.00000454  00000-0 -10417-4 0  9990,2 52668  53.2174 347.0977 0001592  98.0412 262.0761 15.08841434 83495,6917.876,95.437,540.842,538.64,0.0
52668.0,STARLINK-4067,PAYLOAD,2023-11-16 07:16:43,15.08838865,0.0001702,53.2176,344.7191,100.7971,259.3212,4.4976e-05,4.28e-06,0.0,0 STARLINK-4067,1 52668U 22053N   23320.30327660  .00000428  00000-0  44976-4 0  9994,2 52668  53.2176 344.7191 0001702 100.7971 259.3212 15.08838865 83576,6917.884,95.438,540.926,538.571,0.0
52668.0,STARLINK-4067,PAYLOAD,2023-11-16 18:24:25,15.08837238,0.000165,53.2177,342.6378,97.5158,262.6021,7.5994e-05,9.22e-06,0.0,0 STARLINK-4067,1 52668U 22053N   23320.76695753  .00000922  00000-0  75994-4 0  9998,2 52668  53.2177 342.6378 0001650  97.5158 262.6021 15.08837238 83649,6917.889,95.438,540.895,538.612,0.0
52668.0,STARLINK-4067,PAYLOAD,2023-11-17 11:53:39,15.08835226,0.0001767,53.2184,339.3681,104.1052,256.0136,0.00016355,2.315e-05,0.0,0 STARLINK-4067,1 52668U 22053N   23321.49559914  .00002315  00000-0  16355-3 0  9990,2 52668  53.2184 339.3681 0001767 104.1052 256.0136 15.08835226 83755,6917.895,95.438,540.982,538.538,0.0
52668.0,STARLINK-4067,PAYLOAD,2023-11-17 18:15:12,15.08845601,0.0001571,53.2182,338.1785,91.1038,269.0135,-4.5438e-05,-1.011e-05,0.0,0 STARLINK-4067,1 52668U 22053N   23321.76055718 -.00001011  00000-0 -45438-4 0  9992,2 52668  53.2182 338.1785 0001571  91.1038 269.0135 15.08845601 83792,6917.863,95.437,540.815,538.641,0.0
52668.0,STARLINK-4067,PAYLOAD,2023-11-18 00:36:45,15.08833503,0.0001753,53.2186,336.9895,88.053,272.0663,8.7495e-05,1.104e-05,0.0,0 STARLINK-4067,1 52668U 22053N   23322.02552398  .00001104  00000-0  87495-4 0  9998,2 52668  53.2186 336.9895 0001753  88.0530 272.0663 15.08833503 83831,6917.9,95.438,540.978,538.553,0.0
52668.0,STARLINK-4067,PAYLOAD,2023-11-18 08:33:40,15.0883796,0.0001667,53.2185,335.5027,90.2866,269.8317,5.9376e-05,6.57e-06,0.0,0 STARLINK-4067,1 52668U 22053N   23322.35672268  .00000657  00000-0  59376-4 0  9992,2 52668  53.2185 335.5027 0001667  90.2866 269.8317 15.08837960 83889,6917.887,95.438,540.905,538.598,0.0
52668.0,STARLINK-4067,PAYLOAD,2023-11-18 18:05:59,15.08840141,0.0001675,53.2186,333.7185,88.9257,271.1927,7.2261e-05,8.62e-06,0.0,0 STARLINK-4067,1 52668U 22053N   23322.75416127  .00000862  00000-0  72261-4 0  9992,2 52668  53.2186 333.7185 0001675  88.9257 271.1927 15.08840141 83947,6917.88,95.438,540.904,538.586,0.0
52668.0,STARLINK-4067,PAYLOAD,2023-11-19 08:24:27,15.08846803,0.0001582,53.2178,331.042,90.4008,269.7165,8.7302e-05,1.102e-05,0.0,0 STARLINK-4067,1 52668U 22053N   23323.35031611  .00001102  00000-0  87302-4 0  9990,2 52668  53.2178 331.0420 0001582  90.4008 269.7165 15.08846803 84039,6917.86,95.437,540.819,538.63,0.0
52668.0,STARLINK-4067,PAYLOAD,2023-11-20 06:39:50,15.08874347,0.0001438,53.2179,326.8794,84.4185,275.6971,-0.00041075,-6.825e-05,0.0,0 STARLINK-4067,1 52668U 22053N   23324.27767113 -.00006825  00000-0 -41075-3 0  9990,2 52668  53.2179 326.8794 0001438  84.4185 275.6971 15.08874347 84175,6917.775,95.435,540.635,538.646,0.0
52668.0,STARLINK-4067,PAYLOAD,2023-11-20 17:47:33,15.08844208,0.0001589,53.218,324.7979,88.4166,271.7008,7.6945e-05,9.37e-06,0.0,0 STARLINK-4067,1 52668U 22053N   23324.74135767  .00000937  00000-0  76945-4 0  9997,2 52668  53.2180 324.7979 0001589  88.4166 271.7008 15.08844208 84248,6917.868,95.437,540.832,538.633,0.0
52668.0,STARLINK-4067,PAYLOAD,2023-11-21 09:41:23,15.08856388,0.0001733,53.2178,321.8233,93.7485,266.3706,7.6316e-05,9.27e-06,0.0,0 STARLINK-4067,1 52668U 22053N   23325.40374783  .00000927  00000-0  76316-4 0  9995,2 52668  53.2178 321.8233 0001733  93.7485 266.3706 15.08856388 84348,6917.83,95.437,540.894,538.496,0.0
52668.0,STARLINK-4067,PAYLOAD,2023-11-22 03:10:39,15.08842044,0.0001469,53.2182,318.5526,99.3112,260.8047,0.00010935,1.453e-05,0.0,0 STARLINK-4067,1 52668U 22053N   23326.13239627  .00001453  00000-0  10935-3 0  9992,2 52668  53.2182 318.5526 0001469  99.3112 260.8047 15.08842044 84459,6917.874,95.437,540.755,538.723,0.0
52668.0,STARLINK-4067,PAYLOAD,2023-11-22 09:32:11,15.08847682,0.000149,53.2179,317.3634,89.6085,270.5078,0.00011982,1.62e-05,0.0,0 STARLINK-4067,1 52668U 22053N   23326.39735297  .00001620  00000-0  11982-3 0  9993,2 52668  53.2179 317.3634 0001490  89.6085 270.5078 15.08847682 84496,6917.857,95.437,540.753,538.691,0.0
52668.0,STARLINK-4067,PAYLOAD,2023-11-23 03:01:26,15.08839316,0.0001503,53.2165,314.0873,95.9569,264.1594,-1.4716e-06,-3.11e-06,0.0,0 STARLINK-4067,1 52668U 22053N   23327.12599822 -.00000311  00000-0 -14716-5 0  9995,2 52668  53.2165 314.0873 0001503  95.9569 264.1594 15.08839316 84602,6917.882,95.438,540.787,538.708,0.0
